0 COSMOS 2251 DEB
1 33841U 93036CJ  13280.76168775  .00000209  00000-0  84820-4 0  8076
2 33841 074.0393 152.2357 0022656 243.1344 184.3856 14.33544115243403
0 COSMOS 2251 DEB
1 33841U 93036CJ  13283.08107858  .00000297  00000-0  11666-3 0  8084
2 33841 074.0390 147.9959 0022558 238.4108 274.1275 14.33546065243730
0 COSMOS 2251 DEB
1 33841U 93036CJ  13285.56870729  .00000335  00000-0  13013-3 0  8095
2 33841 074.0385 143.4484 0022518 233.4784 151.9831 14.33547538244095
0 COSMOS 2251 DEB
1 33841U 93036CJ  13287.74186630  .00000425  00000-0  16272-3 0  8100
2 33841 074.0381 139.4756 0022474 229.1375 207.0046 14.33549985244401
0 COSMOS 2251 DEB
1 33841U 93036CJ  13289.98282394  .00000409  00000-0  15683-3 0  8110
2 33841 074.0381 135.3787 0022409 224.6830 251.9136 14.33552528244724
0 COSMOS 2251 DEB
1 33841U 93036CJ  13292.01352902  .00000455  00000-0  17358-3 0  8124
2 33841 074.0382 131.6662 0022309 220.4822 291.9544 14.33554070245014
0 COSMOS 2251 DEB
1 33841U 93036CJ  13294.03904003  .00000480  00000-0  18226-3 0  8137
2 33841 074.0382 127.9630 0022244 216.4155 305.0783 14.33556281245309
